NORAD_CAT_ID,OBJECT_NAME,OBJECT_TYPE,EPOCH,MEAN_MOTION,ECCENTRICITY,INCLINATION,RA_OF_ASC_NODE,ARG_OF_PERICENTER,MEAN_ANOMALY,BSTAR,MEAN_MOTION_DOT,MEAN_MOTION_DDOT,TLE_LINE0,TLE_LINE1,TLE_LINE2,SEMIMAJOR_AXIS,PERIOD,APOGEE,PERIGEE,DECAYED
53008.0,STARLINK-4275,PAYLOAD,2024-01-06 10:21:13,15.08827168,0.0001527,53.216,55.1809,104.9726,255.1435,0.00028789,4.295e-05,0.0,0 STARLINK-4275,1 53008U 22076Y   24006.43140741  .00004295  00000-0  28789-3 0  9996,2 53008  53.2160  55.1809 0001527 104.9726 255.1435 15.08827168 83098,6917.92,95.438,540.841,538.728,0.0
53008.0,STARLINK-4275,PAYLOAD,2024-01-07 11:47:24,15.08836482,0.000144,53.2176,50.4282,99.2245,260.891,5.5214e-05,5.91e-06,0.0,0 STARLINK-4275,1 53008U 22076Y   24007.49125206  .00000591  00000-0  55214-4 0  9991,2 53008  53.2176  50.4282 0001440  99.2245 260.8910 15.08836482 83724,6917.891,95.438,540.752,538.76,0.0
53008.0,STARLINK-4275,PAYLOAD,2024-01-08 11:38:10,15.08848692,0.0001433,53.2173,45.9654,98.874,261.2415,7.4647e-05,9.01e-06,0.0,0 STARLINK-4275,1 53008U 22076Y   24008.48484407  .00000901  00000-0  74647-4 0  9998,2 53008  53.2173  45.9654 0001433  98.8740 261.2415 15.08848692 83877,6917.854,95.437,540.71,538.727,0.0
53008.0,STARLINK-4275,PAYLOAD,2024-01-09 01:56:39,15.08836367,0.000146,53.2171,43.2888,98.3598,261.756,4.6347e-05,4.5e-06,0.0,0 STARLINK-4275,1 53008U 22076Y   24009.08101221  .00000450  00000-0  46347-4 0  9990,2 53008  53.2171  43.2888 0001460  98.3598 261.7560 15.08836367 83963,6917.891,95.438,540.767,538.746,0.0
53008.0,STARLINK-4275,PAYLOAD,2024-01-09 08:18:11,15.08841236,0.0001522,53.2172,42.1004,98.2625,261.8539,7.9669e-05,9.8e-06,0.0,0 STARLINK-4275,1 53008U 22076Y   24009.34596862  .00000980  00000-0  79669-4 0  9999,2 53008  53.2172  42.1004 0001522  98.2625 261.8539 15.08841236 83532,6917.877,95.437,540.795,538.689,0.0
53008.0,STARLINK-4275,PAYLOAD,2024-01-10 08:08:59,15.08840148,0.0001585,53.2168,37.6404,95.7927,264.3246,2.5233e-05,1.14e-06,0.0,0 STARLINK-4275,1 53008U 22076Y   24010.33957192  .00000114  00000-0  25233-4 0  9994,2 53008  53.2168  37.6404 0001585  95.7927 264.3246 15.08840148 84159,6917.88,95.438,540.841,538.648,0.0
53008.0,STARLINK-4275,PAYLOAD,2024-01-11 06:24:22,15.08844846,0.0001495,53.2168,33.4774,87.7052,272.4112,7.5809e-05,9.19e-06,0.0,0 STARLINK-4275,1 53008U 22076Y   24011.26692754  .00000919  00000-0  75809-4 0  9994,2 53008  53.2168  33.4774 0001495  87.7052 272.4112 15.08844846 83827,6917.866,95.437,540.765,538.696,0.0
53008.0,STARLINK-4275,PAYLOAD,2024-01-12 01:29:00,15.08835446,0.0001468,53.2174,29.9101,78.4711,281.6446,4.0328e-05,3.54e-06,0.0,0 STARLINK-4275,1 53008U 22076Y   24012.06181576  .00000354  00000-0  40328-4 0  9999,2 53008  53.2174  29.9101 0001468  78.4711 281.6446 15.08835446 84411,6917.894,95.438,540.775,538.744,0.0
53008.0,STARLINK-4275,PAYLOAD,2024-01-12 07:50:33,15.08832284,0.0001558,53.2168,28.7173,102.0622,258.0544,8.5197e-05,1.068e-05,0.0,0 STARLINK-4275,1 53008U 22076Y   24012.32677610  .00001068  00000-0  85197-4 0  9993,2 53008  53.2168  28.7173 0001558 102.0622 258.0544 15.08832284 83980,6917.904,95.438,540.847,538.691,0.0
53008.0,STARLINK-4275,PAYLOAD,2024-01-13 04:30:34,15.08827871,0.0001611,53.217,24.8523,103.392,256.7252,6.812e-05,7.96e-06,0.0,0 STARLINK-4275,1 53008U 22076Y   24013.18790170  .00000796  00000-0  68120-4 0  9999,2 53008  53.2170  24.8523 0001611 103.3920 256.7252 15.08827871 84588,6917.917,95.438,540.897,538.668,0.0
53008.0,STARLINK-4275,PAYLOAD,2024-01-13 07:41:20,15.08836266,0.0001701,53.2171,24.2579,111.5492,248.5681,5.471e-05,5.83e-06,0.0,0 STARLINK-4275,1 53008U 22076Y   24013.32037704  .00000583  00000-0  54710-4 0  9996,2 53008  53.2171  24.2579 0001701 111.5492 248.5681 15.08836266 84605,6917.892,95.438,540.934,538.58,0.0
53008.0,STARLINK-4275,PAYLOAD,2024-01-14 10:42:54,15.08836262,0.0001587,53.2166,19.1985,111.0393,249.0769,7.3036e-05,8.74e-06,0.0,0 STARLINK-4275,1 53008U 22076Y   24014.44646032  .00000874  00000-0  73036-4 0  9995,2 53008  53.2166  19.1985 0001587 111.0393 249.0769 15.08836262 84777,6917.892,95.438,540.855,538.659,0.0
53008.0,STARLINK-4275,PAYLOAD,2024-01-15 08:58:17,15.08849044,0.0001466,53.217,15.034,103.6271,256.4885,0.00021478,3.133e-05,0.0,0 STARLINK-4275,1 53008U 22076Y   24015.37381039  .00003133  00000-0  21478-3 0  9994,2 53008  53.2170  15.0340 0001466 103.6271 256.4885 15.08849044 84919,6917.853,95.437,540.732,538.704,0.0
53008.0,STARLINK-4275,PAYLOAD,2024-01-16 08:49:05,15.08838619,0.0001563,53.2186,10.5775,90.6152,269.5019,4.2067e-05,3.82e-06,0.0,0 STARLINK-4275,1 53008U 22076Y   24016.36742418  .00000382  00000-0  42067-4 0  9997,2 53008  53.2186  10.5775 0001563  90.6152 269.5019 15.08838619 85066,6917.885,95.438,540.831,538.668,0.0
53008.0,STARLINK-4275,PAYLOAD,2024-01-17 03:53:42,15.08849418,0.0001582,53.2193,7.0066,100.2788,259.8383,5.5229e-06,-2e-06,0.0,0 STARLINK-4275,1 53008U 22076Y   24017.16229754 -.00000200  00000-0  55229-5 0  9994,2 53008  53.2193   7.0066 0001582 100.2788 259.8383 15.08849418 85180,6917.852,95.437,540.811,538.622,0.0
53008.0,STARLINK-4275,PAYLOAD,2024-01-17 05:29:05,15.08839573,0.0001684,53.2204,6.7124,101.0996,259.0186,0.00019133,2.758e-05,0.0,0 STARLINK-4275,1 53008U 22076Y   24017.22853879  .00002758  00000-0  19133-3 0  9993,2 53008  53.2204   6.7124 0001684 101.0996 259.0186 15.08839573 84720,6917.882,95.438,540.912,538.582,0.0
53008.0,STARLINK-4275,PAYLOAD,2024-01-18 03:44:30,15.08839053,0.0001553,53.2186,2.5483,94.0714,266.0456,-4.4717e-06,-3.59e-06,0.0,0 STARLINK-4275,1 53008U 22076Y   24018.15590574 -.00000359  00000-0 -44717-5 0  9991,2 53008  53.2186   2.5483 0001553  94.0714 266.0456 15.08839053 85334,6917.883,95.438,540.823,538.674,0.0
53008.0,STARLINK-4275,PAYLOAD,2024-01-18 08:30:39,15.0884184,0.0001539,53.2177,1.6546,99.5843,260.5323,1.6308e-05,-2.8e-07,0.0,0 STARLINK-4275,1 53008U 22076Y   24018.35462263 -.00000028  00000-0  16308-4 0  9992,2 53008  53.2177   1.6546 0001539  99.5843 260.5323 15.08841840 84890,6917.875,95.437,540.804,538.675,0.0
53008.0,STARLINK-4275,PAYLOAD,2024-01-19 03:35:16,15.08852988,0.0001601,53.2173,358.0842,99.685,260.4323,-1.2621e-05,-4.89e-06,0.0,0 STARLINK-4275,1 53008U 22076Y   24019.14949668 -.00000489  00000-0 -12621-4 0  9995,2 53008  53.2173 358.0842 0001601  99.6850 260.4323 15.08852988 85483,6917.841,95.437,540.813,538.598,0.0
53008.0,STARLINK-4275,PAYLOAD,2024-01-19 08:21:25,15.08858425,0.0001737,53.2173,357.1921,100.428,259.6908,-5.7309e-05,-1.201e-05,0.0,0 STARLINK-4275,1 53008U 22076Y   24019.34821362 -.00001201  00000-0 -57309-4 0  9992,2 53008  53.2173 357.1921 0001737 100.4280 259.6908 15.08858425 85042,6917.824,95.436,540.891,538.487,0.0
53008.0,STARLINK-4275,PAYLOAD,2024-01-19 22:39:54,15.08835592,0.0001706,53.2169,354.5143,102.9531,257.1652,4.7669e-05,4.71e-06,0.0,0 STARLINK-4275,1 53008U 22076Y   24019.94438454  .00000471  00000-0  47669-4 0  9998,2 53008  53.2169 354.5143 0001706 102.9531 257.1652 15.08835592 85135,6917.894,95.438,540.939,538.579,0.0
53008.0,STARLINK-4275,PAYLOAD,2024-01-20 03:26:04,15.08838135,0.0001507,53.2175,353.6249,93.3492,266.7673,7.4304e-05,8.95e-06,0.0,0 STARLINK-4275,1 53008U 22076Y   24020.14310310  .00000895  00000-0  74304-4 0  9998,2 53008  53.2175 353.6249 0001507  93.3492 266.7673 15.08838135 85637,6917.886,95.438,540.794,538.709,0.0
53008.0,STARLINK-4275,PAYLOAD,2024-01-20 05:01:27,15.08841077,0.0001532,53.2176,353.3274,90.6335,269.4833,9.7463e-05,1.264e-05,0.0,0 STARLINK-4275,1 53008U 22076Y   24020.20934127  .00001264  00000-0  97463-4 0  9995,2 53008  53.2176 353.3274 0001532  90.6335 269.4833 15.08841077 85173,6917.877,95.437,540.802,538.682,0.0
53008.0,STARLINK-4275,PAYLOAD,2024-01-20 22:30:42,15.08836016,0.0001709,53.2197,350.0626,99.9897,260.1288,-1.6394e-05,-5.49e-06,0.0,0 STARLINK-4275,1 53008U 22076Y   24020.93798977 -.00000549  00000-0 -16394-4 0  9997,2 53008  53.2197 350.0626 0001709  99.9897 260.1288 15.08836016 85283,6917.893,95.438,540.94,538.575,0.0
53008.0,STARLINK-4275,PAYLOAD,2024-01-21 04:52:14,15.08839764,0.0001576,53.2179,348.8677,98.4021,261.715,-1.2141e-05,-4.81e-06,0.0,0 STARLINK-4275,1 53008U 22076Y   24021.20294774 -.00000481  00000-0 -12141-4 0  9995,2 53008  53.2179 348.8677 0001576  98.4021 261.7150 15.08839764 85322,6917.881,95.438,540.836,538.656,0.0
53008.0,STARLINK-4275,PAYLOAD,2024-01-21 08:03:00,15.08839963,0.000157,53.2179,348.2737,97.9016,262.2155,-5.6975e-06,-3.79e-06,0.0,0 STARLINK-4275,1 53008U 22076Y   24021.33542745 -.00000379  00000-0 -56975-5 0  9993,2 53008  53.2179 348.2737 0001570  97.9016 262.2155 15.08839963 85811,6917.881,95.438,540.832,538.659,0.0
53008.0,STARLINK-4275,PAYLOAD,2024-01-21 22:21:29,15.08836926,0.000143,53.2181,345.5978,89.1011,271.0145,4.1501e-05,3.73e-06,0.0,0 STARLINK-4275,1 53008U 22076Y   24021.93158984  .00000373  00000-0  41501-4 0  9997,2 53008  53.2181 345.5978 0001430  89.1011 271.0145 15.08836926 85435,6917.89,95.438,540.744,538.766,0.0
53008.0,STARLINK-4275,PAYLOAD,2024-01-22 04:43:01,15.0884962,0.0001456,53.2183,344.4076,89.4356,270.6803,0.00014897,2.084e-05,0.0,0 STARLINK-4275,1 53008U 22076Y   24022.19654009  .00002084  00000-0  14897-3 0  9993,2 53008  53.2183 344.4076 0001456  89.4356 270.6803 15.08849620 85944,6917.851,95.437,540.723,538.709,0.0
53008.0,STARLINK-4275,PAYLOAD,2024-01-23 02:58:25,15.08838524,0.000147,53.2179,340.2491,89.819,270.2971,0.00010057,1.313e-05,0.0,0 STARLINK-4275,1 53008U 22076Y   24023.12390893  .00001313  00000-0  10057-3 0  9993,2 53008  53.2179 340.2491 0001470  89.8190 270.2971 15.08838524 86089,6917.885,95.438,540.767,538.733,0.0
53008.0,STARLINK-4275,PAYLOAD,2024-01-23 04:33:48,15.08842079,0.0001472,53.2183,339.9523,84.3591,275.7569,0.00014255,1.982e-05,0.0,0 STARLINK-4275,1 53008U 22076Y   24023.19014658  .00001982  00000-0  14255-3 0  9998,2 53008  53.2183 339.9523 0001472  84.3591 275.7569 15.08842079 85624,6917.874,95.437,540.757,538.721,0.0
